KUIPER-00035            
1 63748U 25088AA  25324.78166438 -.00015019  00000+0 -19483-2 0  9994
2 63748  51.9010 235.7017 0006642  67.7531 292.4135 14.79850091 31383
KUIPER-00037            
1 63749U 25088AB  25324.17372479  .00002915  00000+0  40915-3 0  9996
2 63749  51.8990 237.3207 0008505  23.1521 336.9823 14.80155927 32099
KUIPER-00038            
1 63750U 25088AC  25324.73204892  .00001976  00000+0  28842-3 0  9994
2 63750  51.9002 219.8854 0007876  73.1245 287.0580 14.79903740 31386
KUIPER-00039            
1 64500U 25134A   25324.36586986  .00003579  00000+0  49593-3 0  9993
2 64500  51.9023 356.4971 0011328 291.9425  68.0333 14.80113635 23885
KUIPER-00040            
1 64501U 25134B   25324.42201198  .00014386  00000+0  19065-2 0  9998
2 64501  51.9010   7.4205 0016583 266.6327  93.2738 14.79968606 23730
KUIPER-00041            
1 64502U 25134C   25324.42096541  .00003549  00000+0  49430-3 0  9992
2 64502  51.9009   8.7805 0013447 264.0589  95.8841 14.79907808 23715
KUIPER-00042            
1 64503U 25134D   25324.42374968  .00003675  00000+0  50853-3 0  9996
2 64503  51.9009   4.7599 0011950 273.0460  86.9135 14.80103361 23774
KUIPER-00043            
1 64504U 25134E   25324.50029700 -.00001351  00000+0 -14805-3 0  9995
2 64504  51.9021 356.8730 0003366 270.3420  89.7156 14.79944971 23890
